NORAD_CAT_ID,OBJECT_NAME,OBJECT_TYPE,EPOCH,MEAN_MOTION,ECCENTRICITY,INCLINATION,RA_OF_ASC_NODE,ARG_OF_PERICENTER,MEAN_ANOMALY,BSTAR,MEAN_MOTION_DOT,MEAN_MOTION_DDOT,TLE_LINE0,TLE_LINE1,TLE_LINE2,SEMIMAJOR_AXIS,PERIOD,APOGEE,PERIGEE,DECAYED
53605.0,STARLINK-4693,PAYLOAD,2023-10-22 22:08:07,15.08818854,0.0001291,53.2152,183.9447,58.0903,302.0214,-0.00037903,-6.312e-05,0.0,0 STARLINK-4693,1 53605U 22104T   23295.92230449 -.00006312  00000-0 -37903-3 0  9991,2 53605  53.2152 183.9447 0001291  58.0903 302.0214 15.08818854 64463,6917.945,95.439,540.703,538.917,0.0
53605.0,STARLINK-4693,PAYLOAD,2023-10-23 09:15:49,15.0882322,0.0001256,53.2148,181.8641,64.2342,295.8779,0.0011609,0.00018228,0.0,0 STARLINK-4693,1 53605U 22104T   23296.38599322  .00018228  00000-0  11609-2 0  9991,2 53605  53.2148 181.8641 0001256  64.2342 295.8779 15.08823220 63847,6917.932,95.439,540.666,538.928,0.0
53605.0,STARLINK-4693,PAYLOAD,2023-10-23 21:58:55,15.08846001,0.0001201,53.2154,179.4864,67.3757,292.7362,0.0013243,0.00020854,0.0,0 STARLINK-4693,1 53605U 22104T   23296.91591465  .00020854  00000-0  13243-2 0  9994,2 53605  53.2154 179.4864 0001201  67.3757 292.7362 15.08846001 64610,6917.862,95.437,540.558,538.896,0.0
53605.0,STARLINK-4693,PAYLOAD,2023-10-24 09:06:36,15.08854494,0.0001105,53.2149,177.4047,68.1003,292.0107,0.00094549,0.00014797,0.0,0 STARLINK-4693,1 53605U 22104T   23297.37959166  .00014797  00000-0  94549-3 0  9999,2 53605  53.2149 177.4047 0001105  68.1003 292.0107 15.08854494 64683,6917.836,95.437,540.466,538.937,0.0
53605.0,STARLINK-4693,PAYLOAD,2023-10-25 15:18:55,15.08851504,0.0001322,53.2152,171.7557,75.0946,285.0192,0.00021612,3.154e-05,0.0,0 STARLINK-4693,1 53605U 22104T   23298.63814344  .00003154  00000-0  21612-3 0  9993,2 53605  53.2152 171.7557 0001322  75.0946 285.0192 15.08851504 64184,6917.845,95.437,540.625,538.796,0.0
53605.0,STARLINK-4693,PAYLOAD,2023-10-25 21:40:28,15.08850836,0.0001024,53.2149,170.5655,76.3656,283.745,0.00032107,4.827e-05,0.0,0 STARLINK-4693,1 53605U 22104T   23298.90310225  .00004827  00000-0  32107-3 0  9991,2 53605  53.2149 170.5655 0001024  76.3656 283.7450 15.08850836 64917,6917.847,95.437,540.421,539.004,0.0
53605.0,STARLINK-4693,PAYLOAD,2023-10-26 00:51:14,15.08851036,0.0001169,53.2146,169.971,83.9043,276.2082,0.00038647,5.87e-05,0.0,0 STARLINK-4693,1 53605U 22104T   23299.03558186  .00005870  00000-0  38647-3 0  9990,2 53605  53.2146 169.9710 0001169  83.9043 276.2082 15.08851036 64935,6917.847,95.437,540.52,538.903,0.0
53605.0,STARLINK-4693,PAYLOAD,2023-10-26 21:31:15,15.08842769,0.0001327,53.2142,166.1041,92.1021,268.0123,0.00028219,4.206e-05,0.0,0 STARLINK-4693,1 53605U 22104T   23299.89670331  .00004206  00000-0  28219-3 0  9997,2 53605  53.2142 166.1041 0001327  92.1021 268.0123 15.08842769 65064,6917.872,95.437,540.655,538.819,0.0
53605.0,STARLINK-4693,PAYLOAD,2023-10-27 00:42:01,15.08851478,0.000126,53.2138,165.5083,90.7318,269.3818,0.00031059,4.66e-05,0.0,0 STARLINK-4693,1 53605U 22104T   23300.02918037  .00004660  00000-0  31059-3 0  9993,2 53605  53.2138 165.5083 0001260  90.7318 269.3818 15.08851478 64394,6917.845,95.437,540.582,538.839,0.0
53605.0,STARLINK-4693,PAYLOAD,2023-10-27 08:38:57,15.08844036,0.0001458,53.2152,164.0191,100.2538,259.8619,0.00020748,3.016e-05,0.0,0 STARLINK-4693,1 53605U 22104T   23300.36038244  .00003016  00000-0  20748-3 0  9990,2 53605  53.2152 164.0191 0001458 100.2538 259.8619 15.08844036 64445,6917.868,95.437,540.742,538.724,0.0
53605.0,STARLINK-4693,PAYLOAD,2023-10-27 21:22:02,15.08844178,0.0001381,53.2146,161.643,98.3756,261.7393,0.00014774,2.064e-05,0.0,0 STARLINK-4693,1 53605U 22104T   23300.89030242  .00002064  00000-0  14774-3 0  9992,2 53605  53.2146 161.6430 0001381  98.3756 261.7393 15.08844178 65215,6917.868,95.437,540.688,538.777,0.0
53605.0,STARLINK-4693,PAYLOAD,2023-10-28 05:18:57,15.08841685,8.05e-05,53.2142,160.1548,85.3336,274.7748,0.00010729,1.42e-05,0.0,0 STARLINK-4693,1 53605U 22104T   23301.22150260  .00001420  00000-0  10729-3 0  9994,2 53605  53.2142 160.1548 0000805  85.3336 274.7748 15.08841685 64571,6917.875,95.437,540.297,539.183,0.0
53605.0,STARLINK-4693,PAYLOAD,2023-10-28 21:12:49,15.08860161,0.0001538,53.2146,157.1817,96.7035,263.4133,0.00053474,8.237e-05,0.0,0 STARLINK-4693,1 53605U 22104T   23301.88390149  .00008237  00000-0  53474-3 0  9995,2 53605  53.2146 157.1817 0001538  96.7035 263.4133 15.08860161 65367,6917.819,95.436,540.748,538.62,0.0
53605.0,STARLINK-4693,PAYLOAD,2023-10-29 14:42:04,15.08842392,0.0001183,53.2144,153.9117,90.7008,269.412,0.00026903,3.997e-05,0.0,0 STARLINK-4693,1 53605U 22104T   23302.61254959  .00003997  00000-0  26903-3 0  9990,2 53605  53.2144 153.9117 0001183  90.7008 269.4120 15.08842392 65472,6917.873,95.437,540.556,538.92,0.0
53605.0,STARLINK-4693,PAYLOAD,2023-10-29 19:28:13,15.08850272,0.0001437,53.2154,153.0188,104.6579,255.4573,0.00038261,5.808e-05,0.0,0 STARLINK-4693,1 53605U 22104T   23302.81126650  .00005808  00000-0  38261-3 0  9991,2 53605  53.2154 153.0188 0001437 104.6579 255.4573 15.08850272 64812,6917.849,95.437,540.708,538.72,0.0
53605.0,STARLINK-4693,PAYLOAD,2023-10-30 06:35:55,15.08840128,0.0001416,53.2155,150.9379,96.2834,263.8319,2.3546e-05,8.7e-07,0.0,0 STARLINK-4693,1 53605U 22104T   23303.27494959  .00000087  00000-0  23546-4 0  9997,2 53605  53.2155 150.9379 0001416  96.2834 263.8319 15.08840128 64885,6917.88,95.438,540.725,538.765,0.0
53605.0,STARLINK-4693,PAYLOAD,2023-10-30 16:08:14,15.08836398,0.0001416,53.2152,149.1547,99.0574,261.0578,5.7438e-05,6.26e-06,0.0,0 STARLINK-4693,1 53605U 22104T   23303.67239223  .00000626  00000-0  57438-4 0  9998,2 53605  53.2152 149.1547 0001416  99.0574 261.0578 15.08836398 65636,6917.891,95.438,540.736,538.777,0.0
53605.0,STARLINK-4693,PAYLOAD,2023-10-31 12:48:15,15.08841057,0.0001433,53.2143,145.2886,99.7324,260.383,4.0766e-05,3.61e-06,0.0,0 STARLINK-4693,1 53605U 22104T   23304.53351007  .00000361  00000-0  40766-4 0  9991,2 53605  53.2143 145.2886 0001433  99.7324 260.3830 15.08841057 65077,6917.877,95.437,540.733,538.751,0.0
53605.0,STARLINK-4693,PAYLOAD,2023-10-31 20:45:10,15.08842881,0.0001401,53.2147,143.8018,100.3089,259.8061,0.00010764,1.426e-05,0.0,0 STARLINK-4693,1 53605U 22104T   23304.86470959  .00001426  00000-0  10764-3 0  9992,2 53605  53.2147 143.8018 0001401 100.3089 259.8061 15.08842881 65811,6917.872,95.437,540.706,538.767,0.0
53605.0,STARLINK-4693,PAYLOAD,2023-11-01 06:17:29,15.08841657,0.0001352,53.2141,142.0174,99.7889,260.3256,0.00010897,1.447e-05,0.0,0 STARLINK-4693,1 53605U 22104T   23305.26215034  .00001447  00000-0  10897-3 0  9998,2 53605  53.2141 142.0174 0001352  99.7889 260.3256 15.08841657 65872,6917.875,95.437,540.676,538.805,0.0
53605.0,STARLINK-4693,PAYLOAD,2023-11-01 20:35:57,15.08845618,0.0001318,53.2142,139.3407,95.1485,264.9657,0.00019533,2.823e-05,0.0,0 STARLINK-4693,1 53605U 22104T   23305.85830867  .00002823  00000-0  19533-3 0  9995,2 53605  53.2142 139.3407 0001318  95.1485 264.9657 15.08845618 65275,6917.863,95.437,540.64,538.816,0.0
53605.0,STARLINK-4693,PAYLOAD,2023-11-02 12:29:49,15.08836028,0.0001361,53.2148,136.3664,90.1803,269.9345,1.6872e-05,-1.9e-07,0.0,0 STARLINK-4693,1 53605U 22104T   23306.52071449 -.00000019  00000-0  16872-4 0  9993,2 53605  53.2148 136.3664 0001361  90.1803 269.9345 15.08836028 65375,6917.893,95.438,540.699,538.816,0.0
53605.0,STARLINK-4693,PAYLOAD,2023-11-02 22:02:08,15.08837891,0.0001321,53.2149,134.5823,86.5177,273.5966,1.2204e-05,-9.4e-07,0.0,0 STARLINK-4693,1 53605U 22104T   23306.91815422 -.00000094  00000-0  12204-4 0  9991,2 53605  53.2149 134.5823 0001321  86.5177 273.5966 15.08837891 66125,6917.887,95.438,540.666,538.838,0.0
53605.0,STARLINK-4693,PAYLOAD,2023-11-03 12:20:36,15.08840764,0.0001148,53.2153,131.9066,87.9563,272.1561,6.7057e-05,7.8e-06,0.0,0 STARLINK-4693,1 53605U 22104T   23307.51431398  .00000780  00000-0  67057-4 0  9991,2 53605  53.2153 131.9066 0001148  87.9563 272.1561 15.08840764 66210,6917.878,95.438,540.537,538.949,0.0
53605.0,STARLINK-4693,PAYLOAD,2023-11-03 20:17:32,15.08846277,0.0001262,53.2158,130.4194,86.6385,273.4751,7.9878e-05,9.84e-06,0.0,0 STARLINK-4693,1 53605U 22104T   23307.84550990  .00000984  00000-0  79878-4 0  9997,2 53605  53.2158 130.4194 0001262  86.6385 273.4751 15.08846277 65574,6917.861,95.437,540.599,538.853,0.0
53605.0,STARLINK-4693,PAYLOAD,2023-11-03 21:52:55,15.08846463,0.0001263,53.2158,130.1221,86.6565,273.4571,7.9761e-05,9.82e-06,0.0,0 STARLINK-4693,1 53605U 22104T   23307.91174957  .00000982  00000-0  79761-4 0  9999,2 53605  53.2158 130.1221 0001263  86.6565 273.4571 15.08846463 66278,6917.861,95.437,540.599,538.852,0.0
53605.0,STARLINK-4693,PAYLOAD,2023-11-04 05:49:51,15.08842218,0.0001254,53.2159,128.6351,86.7254,273.3881,8.267e-05,1.028e-05,0.0,0 STARLINK-4693,1 53605U 22104T   23308.24295198  .00001028  00000-0  82670-4 0  9992,2 53605  53.2159 128.6351 0001254  86.7254 273.3881 15.08842218 66324,6917.874,95.437,540.606,538.871,0.0
53605.0,STARLINK-4693,PAYLOAD,2023-11-04 18:32:56,15.08840578,0.0001248,53.2159,126.2561,87.6201,272.4934,0.000131,1.798e-05,0.0,0 STARLINK-4693,1 53605U 22104T   23308.77287256  .00001798  00000-0  13100-3 0  9991,2 53605  53.2159 126.2561 0001248  87.6201 272.4934 15.08840578 65714,6917.879,95.438,540.607,538.88,0.0
53605.0,STARLINK-4693,PAYLOAD,2023-11-05 12:02:10,15.08842207,0.000125,53.2161,122.9848,88.9663,271.1473,0.00010673,1.411e-05,0.0,0 STARLINK-4693,1 53605U 22104T   23309.50151223  .00001411  00000-0  10673-3 0  9991,2 53605  53.2161 122.9848 0001250  88.9663 271.1473 15.08842207 66511,6917.874,95.437,540.603,538.874,0.0
53605.0,STARLINK-4693,PAYLOAD,2023-11-05 18:23:42,15.08849023,0.0001283,53.2163,121.7952,91.0317,269.0822,9.6059e-05,1.242e-05,0.0,0 STARLINK-4693,1 53605U 22104T   23309.76646687  .00001242  00000-0  96059-4 0  9997,2 53605  53.2163 121.7952 0001283  91.0317 269.0822 15.08849023 66554,6917.853,95.437,540.605,538.83,0.0
